STARLINK-34492          
1 64473U 25133B   25354.64530912  .00018395  00000+0  63160-3 0  9991
2 64473  53.1591 124.1520 0001272  80.3220 279.7925 15.30202331 29082
STARLINK-34474          
1 64474U 25133C   25354.64214360  .00020220  00000+0  69304-3 0  9994
2 64474  53.1601 124.1315 0001401  85.1939 274.9222 15.30195735 29065
STARLINK-34523          
1 64475U 25133D   25354.11329362  .00025798  00000+0  87991-3 0  9993
2 64475  53.1603 126.5186 0001093  68.1702 291.9415 15.30207909 28986
STARLINK-34496          
1 64476U 25133E   25354.62947991  .00017272  00000+0  59384-3 0  9997
2 64476  53.1595 124.0498 0001543  87.5585 272.5593 15.30204140 29088
STARLINK-34375          
1 64477U 25133F   25354.10063139  .00023985  00000+0  81941-3 0  9996
2 64477  53.1594 126.4362 0001473  80.1637 279.9530 15.30195730 29001
STARLINK-34490          
1 64478U 25133G   25354.54728265  .00017749  00000+0  60973-3 0  9996
2 64478  53.1577 124.2489 0001584  42.4671 317.6452 15.30212374 29075
STARLINK-34528          
1 64479U 25133H   25354.35450118  .00016188  00000+0  55752-3 0  9990
2 64479  53.1584 125.1774 0001211  86.1636 273.9503 15.30198701 29027
STARLINK-34518          
1 64480U 25133J   25354.54411512  .00020735  00000+0  70956-3 0  9994
2 64480  53.1593 124.2254 0001386  67.1505 292.9642 15.30230881 28917
STARLINK-34526          
1 64481U 25133K   25354.54094921  .00015445  00000+0  53253-3 0  9999
2 64481  53.1586 124.2090 0001535  89.2858 270.8319 15.30198608 28961
STARLINK-34527          
1 64482U 25133L   25354.59676642  .00016524  00000+0  56872-3 0  9990
2 64482  53.1578 123.8451 0001871  85.9871 274.1344 15.30203372 29084
STARLINK-34420          
1 64483U 25133M   25354.06791272  .00016535  00000+0  56897-3 0  9999
2 64483  53.1582 126.2321 0000155  76.5708 283.5310 15.30210251 29005
STARLINK-34509          
1 64484U 25133N   25354.58737960  .00026194  00000+0  89306-3 0  9994
2 64484  53.1590 124.4944 0001005  88.0151 272.0965 15.30212121 29075
STARLINK-34409          
1 64485U 25133P   25354.58527022  .00018030  00000+0  61926-3 0  9999
2 64485  53.1586 124.4822 0001221  66.0498 294.0631 15.30206866 29079
STARLINK-34520          
1 64486U 25133Q   25354.51678754  .00016004  00000+0  55110-3 0  9999
2 64486  53.1580 124.7641 0001293  79.0263 281.0884 15.30211898 29065
STARLINK-34477          
1 64487U 25133R   25354.64425165  .00016943  00000+0  58288-3 0  9991
2 64487  53.1590 124.1390 0000992  68.1105 292.0001 15.30198191 29075
STARLINK-34217          
1 64488U 25133S   25354.64109270  .00021338  00000+0  72975-3 0  9991
2 64488  53.1590 124.1179 0001226  48.2566 311.8540 15.30233811 28977
