[{"OBJECT_NAME":"STARLINK-34492","OBJECT_ID":"2025-133B","EPOCH":"2025-12-20T15:29:14.707968","MEAN_MOTION":15.30202331,"ECCENTRICITY":0.00012722,"INCLINATION":53.1591,"RA_OF_ASC_NODE":124.152,"ARG_OF_PERICENTER":80.322,"MEAN_ANOMALY":279.7925,"EPHEMERIS_TYPE":0,"CLASSIFICATION_TYPE":"U","NORAD_CAT_ID":64473,"ELEMENT_SET_NO":999,"REV_AT_EPOCH":2908,"BSTAR":0.00063160376,"MEAN_MOTION_DOT":0.00018395,"MEAN_MOTION_DDOT":0},{"OBJECT_NAME":"STARLINK-34474","OBJECT_ID":"2025-133C","EPOCH":"2025-12-20T15:24:41.207040","MEAN_MOTION":15.30195735,"ECCENTRICITY":0.00014015,"INCLINATION":53.1601,"RA_OF_ASC_NODE":124.1315,"ARG_OF_PERICENTER":85.1939,"MEAN_ANOMALY":274.9222,"EPHEMERIS_TYPE":0,"CLASSIFICATION_TYPE":"U","NORAD_CAT_ID":64474,"ELEMENT_SET_NO":999,"REV_AT_EPOCH":2906,"BSTAR":0.00069304462,"MEAN_MOTION_DOT":0.0002022,"MEAN_MOTION_DDOT":0},{"OBJECT_NAME":"STARLINK-34523","OBJECT_ID":"2025-133D","EPOCH":"2025-12-20T02:43:08.568768","MEAN_MOTION":15.30207909,"ECCENTRICITY":0.00010932,"INCLINATION":53.1603,"RA_OF_ASC_NODE":126.5186,"ARG_OF_PERICENTER":68.1702,"MEAN_ANOMALY":291.9415,"EPHEMERIS_TYPE":0,"CLASSIFICATION_TYPE":"U","NORAD_CAT_ID":64475,"ELEMENT_SET_NO":999,"REV_AT_EPOCH":2898,"BSTAR":0.00087990673,"MEAN_MOTION_DOT":0.00025798,"MEAN_MOTION_DDOT":0},{"OBJECT_NAME":"STARLINK-34496","OBJECT_ID":"2025-133E","EPOCH":"2025-12-20T15:06:27.064224","MEAN_MOTION":15.3020414,"ECCENTRICITY":0.00015438,"INCLINATION":53.1595,"RA_OF_ASC_NODE":124.0498,"ARG_OF_PERICENTER":87.5585,"MEAN_ANOMALY":272.5593,"EPHEMERIS_TYPE":0,"CLASSIFICATION_TYPE":"U","NORAD_CAT_ID":64476,"ELEMENT_SET_NO":999,"REV_AT_EPOCH":2908,"BSTAR":0.00059383805,"MEAN_MOTION_DOT":0.00017272,"MEAN_MOTION_DDOT":0},{"OBJECT_NAME":"STARLINK-34375","OBJECT_ID":"2025-133F","EPOCH":"2025-12-20T02:24:54.552096","MEAN_MOTION":15.3019573,"ECCENTRICITY":0.00014731,"INCLINATION":53.1594,"RA_OF_ASC_NODE":126.4362,"ARG_OF_PERICENTER":80.1637,"MEAN_ANOMALY":279.953,"EPHEMERIS_TYPE":0,"CLASSIFICATION_TYPE":"U","NORAD_CAT_ID":64477,"ELEMENT_SET_NO":999,"REV_AT_EPOCH":2900,"BSTAR":0.00081940768,"MEAN_MOTION_DOT":0.00023985,"MEAN_MOTION_DDOT":0},{"OBJECT_NAME":"STARLINK-34490","OBJECT_ID":"2025-133G","EPOCH":"2025-12-20T13:08:05.220960","MEAN_MOTION":15.30212374,"ECCENTRICITY":0.00015848,"INCLINATION":53.1577,"RA_OF_ASC_NODE":124.2489,"ARG_OF_PERICENTER":42.4671,"MEAN_ANOMALY":317.6452,"EPHEMERIS_TYPE":0,"CLASSIFICATION_TYPE":"U","NORAD_CAT_ID":64478,"ELEMENT_SET_NO":999,"REV_AT_EPOCH":2907,"BSTAR":0.00060973164,"MEAN_MOTION_DOT":0.00017749,"MEAN_MOTION_DDOT":0},{"OBJECT_NAME":"STARLINK-34528","OBJECT_ID":"2025-133H","EPOCH":"2025-12-20T08:30:28.901952","MEAN_MOTION":15.30198701,"ECCENTRICITY":0.00012116,"INCLINATION":53.1584,"RA_OF_ASC_NODE":125.1774,"ARG_OF_PERICENTER":86.1636,"MEAN_ANOMALY":273.9503,"EPHEMERIS_TYPE":0,"CLASSIFICATION_TYPE":"U","NORAD_CAT_ID":64479,"ELEMENT_SET_NO":999,"REV_AT_EPOCH":2902,"BSTAR":0.00055751865,"MEAN_MOTION_DOT":0.00016188,"MEAN_MOTION_DDOT":0},{"OBJECT_NAME":"STARLINK-34518","OBJECT_ID":"2025-133J","EPOCH":"2025-12-20T13:03:31.546368","MEAN_MOTION":15.30230881,"ECCENTRICITY":0.00013863,"INCLINATION":53.1593,"RA_OF_ASC_NODE":124.2254,"ARG_OF_PERICENTER":67.1505,"MEAN_ANOMALY":292.9642,"EPHEMERIS_TYPE":0,"CLASSIFICATION_TYPE":"U","NORAD_CAT_ID":64480,"ELEMENT_SET_NO":999,"REV_AT_EPOCH":2891,"BSTAR":0.00070955883,"MEAN_MOTION_DOT":0.00020735,"MEAN_MOTION_DDOT":0},{"OBJECT_NAME":"STARLINK-34526","OBJECT_ID":"2025-133K","EPOCH":"2025-12-20T12:58:58.011744","MEAN_MOTION":15.30198608,"ECCENTRICITY":0.00015356,"INCLINATION":53.1586,"RA_OF_ASC_NODE":124.209,"ARG_OF_PERICENTER":89.2858,"MEAN_ANOMALY":270.8319,"EPHEMERIS_TYPE":0,"CLASSIFICATION_TYPE":"U","NORAD_CAT_ID":64481,"ELEMENT_SET_NO":999,"REV_AT_EPOCH":2896,"BSTAR":0.00053252561,"MEAN_MOTION_DOT":0.00015445,"MEAN_MOTION_DDOT":0},{"OBJECT_NAME":"STARLINK-34527","OBJECT_ID":"2025-133L","EPOCH":"2025-12-20T14:19:20.618688","MEAN_MOTION":15.30203372,"ECCENTRICITY":0.00018711,"INCLINATION":53.1578,"RA_OF_ASC_NODE":123.8451,"ARG_OF_PERICENTER":85.9871,"MEAN_ANOMALY":274.1344,"EPHEMERIS_TYPE":0,"CLASSIFICATION_TYPE":"U","NORAD_CAT_ID":64482,"ELEMENT_SET_NO":999,"REV_AT_EPOCH":2908,"BSTAR":0.00056872289,"MEAN_MOTION_DOT":0.00016524,"MEAN_MOTION_DDOT":0},{"OBJECT_NAME":"STARLINK-34420","OBJECT_ID":"2025-133M","EPOCH":"2025-12-20T01:37:47.659008","MEAN_MOTION":15.30210251,"ECCENTRICITY":1.559e-5,"INCLINATION":53.1582,"RA_OF_ASC_NODE":126.2321,"ARG_OF_PERICENTER":76.5708,"MEAN_ANOMALY":283.531,"EPHEMERIS_TYPE":0,"CLASSIFICATION_TYPE":"U","NORAD_CAT_ID":64483,"ELEMENT_SET_NO":999,"REV_AT_EPOCH":2900,"BSTAR":0.00056896769,"MEAN_MOTION_DOT":0.00016535,"MEAN_MOTION_DDOT":0},{"OBJECT_NAME":"STARLINK-34509","OBJECT_ID":"2025-133N","EPOCH":"2025-12-20T14:05:49.597440","MEAN_MOTION":15.30212121,"ECCENTRICITY":0.00010052,"INCLINATION":53.159,"RA_OF_ASC_NODE":124.4944,"ARG_OF_PERICENTER":88.0151,"MEAN_ANOMALY":272.0965,"EPHEMERIS_TYPE":0,"CLASSIFICATION_TYPE":"U","NORAD_CAT_ID":64484,"ELEMENT_SET_NO":999,"REV_AT_EPOCH":2907,"BSTAR":0.00089305779,"MEAN_MOTION_DOT":0.00026194,"MEAN_MOTION_DDOT":0},{"OBJECT_NAME":"STARLINK-34409","OBJECT_ID":"2025-133P","EPOCH":"2025-12-20T14:02:47.347008","MEAN_MOTION":15.30206866,"ECCENTRICITY":0.00012213,"INCLINATION":53.1586,"RA_OF_ASC_NODE":124.4822,"ARG_OF_PERICENTER":66.0498,"MEAN_ANOMALY":294.0631,"EPHEMERIS_TYPE":0,"CLASSIFICATION_TYPE":"U","NORAD_CAT_ID":64485,"ELEMENT_SET_NO":999,"REV_AT_EPOCH":2907,"BSTAR":0.00061926022,"MEAN_MOTION_DOT":0.0001803,"MEAN_MOTION_DDOT":0},{"OBJECT_NAME":"STARLINK-34520","OBJECT_ID":"2025-133Q","EPOCH":"2025-12-20T12:24:10.443456","MEAN_MOTION":15.30211898,"ECCENTRICITY":0.00012937,"INCLINATION":53.158,"RA_OF_ASC_NODE":124.7641,"ARG_OF_PERICENTER":79.0263,"MEAN_ANOMALY":281.0884,"EPHEMERIS_TYPE":0,"CLASSIFICATION_TYPE":"U","NORAD_CAT_ID":64486,"ELEMENT_SET_NO":999,"REV_AT_EPOCH":2906,"BSTAR":0.0005510995,"MEAN_MOTION_DOT":0.00016004,"MEAN_MOTION_DDOT":0},{"OBJECT_NAME":"STARLINK-34477","OBJECT_ID":"2025-133R","EPOCH":"2025-12-20T15:27:43.342560","MEAN_MOTION":15.30198191,"ECCENTRICITY":9.92e-5,"INCLINATION":53.159,"RA_OF_ASC_NODE":124.139,"ARG_OF_PERICENTER":68.1105,"MEAN_ANOMALY":292.0001,"EPHEMERIS_TYPE":0,"CLASSIFICATION_TYPE":"U","NORAD_CAT_ID":64487,"ELEMENT_SET_NO":999,"REV_AT_EPOCH":2907,"BSTAR":0.00058288294,"MEAN_MOTION_DOT":0.00016943,"MEAN_MOTION_DDOT":0},{"OBJECT_NAME":"STARLINK-34217","OBJECT_ID":"2025-133S","EPOCH":"2025-12-20T15:23:10.409280","MEAN_MOTION":15.30233811,"ECCENTRICITY":0.00012269,"INCLINATION":53.159,"RA_OF_ASC_NODE":124.1179,"ARG_OF_PERICENTER":48.2566,"MEAN_ANOMALY":311.854,"EPHEMERIS_TYPE":0,"CLASSIFICATION_TYPE":"U","NORAD_CAT_ID":64488,"ELEMENT_SET_NO":999,"REV_AT_EPOCH":2897,"BSTAR":0.0007297465,"MEAN_MOTION_DOT":0.00021338,"MEAN_MOTION_DDOT":0}]
